{
"type": "FeatureCollection",
"name": "hunters_creek",
"crs": { "type": "name", "properties": { "name": "urn:ogc:def:crs:OGC:1.3:CRS84" } },
"features": [
{ "type": "Feature", "properties": { "id": null, "Name": null, "description": null, "timestamp": null, "begin": null, "end": null, "altitudeMode": "clampToGround", "tessellate": -1, "extrude": 0, "visibility": -1, "drawOrder": null, "icon": null, "OBJECTID": 5216.0, "SWIS": "146600", "PIN": "1466001890000001016000", "SBL": "189.00-1-16", "ADDNAME": "HUNTERS CRK RD", "NARR1": null, "NARR2": null, "NARR3": null, "FRONT": 0.0, "DEPTH": 0.0, "ASSESSACRE": 750.7, "CALCACRES": 756.88382731000002, "CLASS": 962, "PROP_TYPE": "B", "PROP_DESC": "County park", "OWNER1": "COUNTY OF ERIE", "OWNER2": null, "MAILAD1": null, "MAILAD2": null, "STREET": "95 FRANKLIN ST", "CITY": "BUFFALO  NY", "ZIP": "14202", "ZIP4": null, "SCHOOL": 144201.0, "SCHL_DIST": "IROQUOIS CENTRAL SCHOOL DISTRICT #1", "DEEDATE": null, "ROLL": 8, "BOOK": null, "PAGE": null, "ACTIVE": "A", "TOTAV": 330200.0, "LANDAV": 316700.0, "COTAX": 0.0, "TOWNTAX": 0.0, "SCHLTAX": 0.0, "VILLTAX": 0.0, "YEARBLT": 1940, "SFLA": 1614.0, "CONDITION": 0, "HEAT": 0, "BASEMENT": 0, "FIREPLACE": 1, "BEDS": 4, "BATHS": 1.5, "ADDNUM": 4812.0, "CITYTOWN": "Wales", "ADDNUM_STR": "4812", "ADDRESS": "4812 HUNTERS CRK RD", "LOCALZIP": "14169", "GlobalID": "{60431609-72F6-4631-B887-20D9EE7D9337}", "Shape_STAr": 32969727.638799999, "Shape_STLe": 37827.11646550001 }, "geometry": { "type": "MultiPolygon", "coordinates": [ [ [ [ -78.538156074011198, 42.763132254608998 ], [ -78.536677380646907, 42.7627173317345 ], [ -78.536370219692799, 42.762630430071802 ], [ -78.535595919560095, 42.762410939740697 ], [ -78.535094589310901, 42.762253470013199 ], [ -78.534541028159197, 42.762072650579299 ], [ -78.534564340046202, 42.762023268744201 ], [ -78.534345619291301, 42.761947032031202 ], [ -78.5343853543432, 42.761881707672003 ], [ -78.534312287025202, 42.7618626417025 ], [ -78.533943013382995, 42.761745866596499 ], [ -78.533587121719606, 42.761633554109899 ], [ -78.533263224441498, 42.7615310311364 ], [ -78.533205553400805, 42.761615897812099 ], [ -78.533060944725904, 42.761564385595101 ], [ -78.533054435358807, 42.7615537499806 ], [ -78.532635253815897, 42.7608464818504 ], [ -78.532414800645597, 42.760474235696599 ], [ -78.532407828656901, 42.760461884876499 ], [ -78.531889217487404, 42.759548258429099 ], [ -78.531509747859303, 42.759401801573702 ], [ -78.531492188369896, 42.759387216904102 ], [ -78.531560293393497, 42.759208031997296 ], [ -78.5315867668441, 42.759138416528401 ], [ -78.531585257313296, 42.759133442007901 ], [ -78.531522353679705, 42.758929846285596 ], [ -78.531517464472103, 42.758790759341998 ], [ -78.531533712251004, 42.7584194734509 ], [ -78.531542845066198, 42.758209049529697 ], [ -78.5315579294126, 42.7579785636879 ], [ -78.531573382579694, 42.757298066585697 ], [ -78.531573743894199, 42.756984720224501 ], [ -78.531705120036605, 42.756194080214598 ], [ -78.531716042970999, 42.7559335278875 ], [ -78.531782583365796, 42.755234986553603 ], [ -78.531723648866802, 42.754313323711202 ], [ -78.5333530735723, 42.7543281613411 ], [ -78.534067972294693, 42.754332067583498 ], [ -78.536019035150403, 42.754365806772803 ], [ -78.536520536057495, 42.754369612042403 ], [ -78.536550320649297, 42.754373397132099 ], [ -78.536570887468898, 42.753312347509699 ], [ -78.536577799881996, 42.753092318291102 ], [ -78.536579309566505, 42.753043875019301 ], [ -78.536598973772101, 42.752413241027199 ], [ -78.536601397199803, 42.752335506904998 ], [ -78.536596725976096, 42.752046531382199 ], [ -78.536600301185302, 42.751931628475702 ], [ -78.536602447905807, 42.751864454989402 ], [ -78.536610341644206, 42.751617510634702 ], [ -78.536616975615502, 42.751409938804002 ], [ -78.536617535055299, 42.751284916817099 ], [ -78.536619956958106, 42.750684503071497 ], [ -78.536609209034694, 42.749958204576302 ], [ -78.536600789792999, 42.749388143749201 ], [ -78.536596616884907, 42.7492096136261 ], [ -78.531846332278704, 42.749230926243698 ], [ -78.531848155194695, 42.7491359179404 ], [ -78.531878766642507, 42.748126153248997 ], [ -78.5318788378368, 42.748040061965398 ], [ -78.536567181867596, 42.7479557829922 ], [ -78.536545757462605, 42.7470392924725 ], [ -78.540660496818404, 42.747049107968998 ], [ -78.540740847009303, 42.744703393239 ], [ -78.540956712950006, 42.738392013194897 ], [ -78.542447688056498, 42.738392547054801 ], [ -78.542487789714301, 42.737363917235399 ], [ -78.543589049611398, 42.737364298387199 ], [ -78.544526636983804, 42.737364614509502 ], [ -78.545261120880397, 42.737364856521097 ], [ -78.545308839203997, 42.736357322638703 ], [ -78.546003639260107, 42.736365435567897 ], [ -78.546961443990298, 42.736380316940803 ], [ -78.547303896568096, 42.736391398290202 ], [ -78.5480682348024, 42.736442909739999 ], [ -78.548320301487493, 42.736457562971097 ], [ -78.5483213480953, 42.736457563290998 ], [ -78.548488511776497, 42.736449725409301 ], [ -78.549244522976096, 42.736413933153003 ], [ -78.550410901554599, 42.736425243881797 ], [ -78.551105703319493, 42.736432811819697 ], [ -78.551293217185801, 42.736434921494599 ], [ -78.551824117694196, 42.7364410680294 ], [ -78.553378785615905, 42.736458969786597 ], [ -78.554579946908703, 42.736470246250597 ], [ -78.555537760242004, 42.736474079196697 ], [ -78.555617209647593, 42.736474098450998 ], [ -78.557024274341003, 42.736463960448901 ], [ -78.557076387576103, 42.736463458367297 ], [ -78.557185616698405, 42.736464339491803 ], [ -78.557199823408496, 42.7364644552652 ], [ -78.557182578681605, 42.737277552297698 ], [ -78.557428207160996, 42.737281313534403 ], [ -78.557420862455302, 42.737472159643403 ], [ -78.557050834514101, 42.7470867651923 ], [ -78.558521308619405, 42.747089872267502 ], [ -78.558558412725702, 42.747089949619003 ], [ -78.561015720410893, 42.747095415188497 ], [ -78.562099234621897, 42.747097501820498 ], [ -78.562020644126505, 42.7507613620622 ], [ -78.561374545159794, 42.750762273479502 ], [ -78.560521343176703, 42.750757651399802 ], [ -78.558460534873404, 42.750747116225497 ], [ -78.558188739081004, 42.750747057772898 ], [ -78.557666206618094, 42.750746944554599 ], [ -78.557018364864106, 42.750744401078201 ], [ -78.555829374608294, 42.750739154157401 ], [ -78.555671140287401, 42.750728655214999 ], [ -78.554484127252707, 42.750727854613302 ], [ -78.552543048663907, 42.750712783252801 ], [ -78.551209185149403, 42.750705252731699 ], [ -78.551171390025402, 42.750705039569098 ], [ -78.550717621337796, 42.7507025120888 ], [ -78.549137578899007, 42.750693485387103 ], [ -78.548730462321302, 42.750700739699703 ], [ -78.548558844238798, 42.750702575528798 ], [ -78.548491477097102, 42.7507025550535 ], [ -78.548398746036, 42.750700640793902 ], [ -78.548015603225707, 42.750696753059003 ], [ -78.547042562499499, 42.7506928523811 ], [ -78.544123548920595, 42.750688305433002 ], [ -78.539412501179299, 42.750679246940997 ], [ -78.5394019943503, 42.751400049919297 ], [ -78.539386602506298, 42.752117077110697 ], [ -78.539376220387993, 42.752823130366899 ], [ -78.539365920836801, 42.753412221273102 ], [ -78.539340518097703, 42.754133018180198 ], [ -78.539330128544904, 42.754850046941797 ], [ -78.539314485665102, 42.7559256763139 ], [ -78.539294087802503, 42.756642700999102 ], [ -78.539278442601102, 42.757718330027203 ], [ -78.539258518185505, 42.758422663945701 ], [ -78.539247902066606, 42.7587939522165 ], [ -78.539232256715906, 42.759869580832202 ], [ -78.539211972515702, 42.760586776096197 ], [ -78.539184961159705, 42.762119788559502 ], [ -78.539180222561299, 42.762388690753397 ], [ -78.539175862449895, 42.762467235165197 ], [ -78.539160465153401, 42.763184260931702 ], [ -78.539152465821203, 42.763473232702502 ], [ -78.538156074011198, 42.763132254608998 ] ] ] ] } },
{ "type": "Feature", "properties": { "id": null, "Name": null, "description": null, "timestamp": null, "begin": null, "end": null, "altitudeMode": "clampToGround", "tessellate": -1, "extrude": 0, "visibility": -1, "drawOrder": null, "icon": null, "OBJECTID": 5271.0, "SWIS": "146600", "PIN": "1466001770000001026110", "SBL": "177.00-1-26.11", "ADDNAME": "STRYKERSVILLE RD", "NARR1": null, "NARR2": null, "NARR3": null, "FRONT": 0.0, "DEPTH": 0.0, "ASSESSACRE": 141.25, "CALCACRES": 135.67789205, "CLASS": 682, "PROP_TYPE": "B", "PROP_DESC": "Rec facility", "OWNER1": "WESTERN NEW YORK LAND", "OWNER2": "CONSERVANCY  INC", "MAILAD1": null, "MAILAD2": null, "STREET": "PO BOX 471", "CITY": "EAST AURORA  NY", "ZIP": "14052", "ZIP4": "-471", "SCHOOL": 144201.0, "SCHL_DIST": "IROQUOIS CENTRAL SCHOOL DISTRICT #1", "DEEDATE": null, "ROLL": 8, "BOOK": "08873", "PAGE": "00563", "ACTIVE": "A", "TOTAV": 133600.0, "LANDAV": 77200.0, "COTAX": 0.0, "TOWNTAX": 0.0, "SCHLTAX": 0.0, "VILLTAX": 0.0, "YEARBLT": 1926, "SFLA": 2123.0, "CONDITION": 0, "HEAT": 0, "BASEMENT": 0, "FIREPLACE": 1, "BEDS": 4, "BATHS": 2.0, "ADDNUM": 11663.0, "CITYTOWN": "Wales", "ADDNUM_STR": "11663", "ADDRESS": "11663 STRYKERSVILLE RD", "LOCALZIP": "14169", "GlobalID": "{26385A57-E4CA-4BEF-82D0-4BB44361C0F3}", "Shape_STAr": 5910105.3372799996, "Shape_STLe": 22186.031024299999 }, "geometry": { "type": "MultiPolygon", "coordinates": [ [ [ [ -78.550148834702796, 42.767291505173901 ], [ -78.550026998826695, 42.7672599154468 ], [ -78.549652183884604, 42.767162911951999 ], [ -78.547892221558499, 42.766603995339501 ], [ -78.5475995762163, 42.766509238620699 ], [ -78.546949304255307, 42.766198112128798 ], [ -78.5466514409149, 42.7660772848389 ], [ -78.546164962812298, 42.765897744081798 ], [ -78.545574111683294, 42.765689013467302 ], [ -78.5447948160338, 42.765341303889798 ], [ -78.544258623327806, 42.7652130169187 ], [ -78.543340169689898, 42.764839525446298 ], [ -78.542783793684805, 42.764620158788702 ], [ -78.5425424151192, 42.764638596419999 ], [ -78.542491220021702, 42.764620743487498 ], [ -78.543132219353893, 42.763899132405299 ], [ -78.543400616674504, 42.763474939767399 ], [ -78.544106399589495, 42.762399546143499 ], [ -78.544433003130607, 42.761921692174397 ], [ -78.544528863611006, 42.761781267163101 ], [ -78.544593340631295, 42.761770312346201 ], [ -78.544712509041403, 42.761763149766502 ], [ -78.544881364906104, 42.761763204794001 ], [ -78.545149459150494, 42.761807196604899 ], [ -78.545303397252894, 42.761843776049702 ], [ -78.5455068924187, 42.761909697948198 ], [ -78.545596263377405, 42.761913327504203 ], [ -78.545685638715, 42.761909755056898 ], [ -78.546038122884795, 42.761920845255702 ], [ -78.546182203381093, 42.761902540663101 ], [ -78.546365870550304, 42.7618477195617 ], [ -78.546445369694197, 42.761818589966502 ], [ -78.546495074514098, 42.761792880656103 ], [ -78.546519873250702, 42.761774710047099 ], [ -78.546549680394904, 42.761745393346402 ], [ -78.546728518974405, 42.761588186497399 ], [ -78.547036482704399, 42.761306512404403 ], [ -78.547200452955593, 42.761094420439001 ], [ -78.547329758683603, 42.760860193888199 ], [ -78.547493739433193, 42.760626149986003 ], [ -78.547612982075094, 42.760483500675001 ], [ -78.547866417283601, 42.7600994236292 ], [ -78.548129717405502, 42.7597556501726 ], [ -78.5486016439812, 42.759232551877801 ], [ -78.5486960610084, 42.759152147427201 ], [ -78.548899653274106, 42.7590314728305 ], [ -78.549207808330095, 42.758783063080401 ], [ -78.549284629561498, 42.758746556813499 ], [ -78.549634820487697, 42.758442592728997 ], [ -78.549651585954607, 42.758426134027999 ], [ -78.549724236209798, 42.7583548111607 ], [ -78.549833599245304, 42.758171854522502 ], [ -78.549818760629705, 42.758065864632499 ], [ -78.549769088714598, 42.758036524684499 ], [ -78.549371958899897, 42.7579925063663 ], [ -78.5491783179489, 42.758010800215999 ], [ -78.549148534811906, 42.757999815572099 ], [ -78.549103853891694, 42.757992427438197 ], [ -78.548999593775207, 42.757988796155402 ], [ -78.548910214084003, 42.758010720834903 ], [ -78.548830737170306, 42.758010697815799 ], [ -78.548597435494898, 42.757992277640199 ], [ -78.548537868232401, 42.757970308942397 ], [ -78.548438519543794, 42.757922774714302 ], [ -78.548408740729499, 42.757904415092597 ], [ -78.548269989081106, 42.757564121521497 ], [ -78.548235206568094, 42.7575457612215 ], [ -78.548205446533302, 42.757494645325202 ], [ -78.548185582181205, 42.757432386555003 ], [ -78.548126257707693, 42.756974982961601 ], [ -78.548131322608995, 42.756865226032403 ], [ -78.548156170402393, 42.756751873308602 ], [ -78.548340150398303, 42.756309292930403 ], [ -78.548514078749406, 42.755947141361297 ], [ -78.548707864886893, 42.755650850977403 ], [ -78.5487924671542, 42.755420382838899 ], [ -78.548787577029202, 42.755211839190203 ], [ -78.548698286658905, 42.755076330156498 ], [ -78.548618848216094, 42.755014224447798 ], [ -78.548107720601394, 42.754735901382098 ], [ -78.548058056246106, 42.7546993569336 ], [ -78.547988626000503, 42.754633480948002 ], [ -78.547958863455605, 42.754589567805802 ], [ -78.547943991438402, 42.7545492620308 ], [ -78.547874601785395, 42.754205387325101 ], [ -78.547859728980001, 42.754168854455102 ], [ -78.547749774387697, 42.753955991166301 ], [ -78.547755714669606, 42.753736990860602 ], [ -78.547626862756601, 42.753404073233298 ], [ -78.547492923346894, 42.753221044352898 ], [ -78.547413492743601, 42.753151562998902 ], [ -78.547135602821996, 42.753005189569897 ], [ -78.546947026320893, 42.7529428770859 ], [ -78.546901918497099, 42.752876493208397 ], [ -78.546880293579903, 42.752844416059602 ], [ -78.546773339192399, 42.752686775467403 ], [ -78.546758464053397, 42.752653843417498 ], [ -78.546768485034903, 42.752628122164197 ], [ -78.546788282974703, 42.752598973202801 ], [ -78.546884659505494, 42.752536407296297 ], [ -78.546912145048694, 42.752491998033598 ], [ -78.546996912150107, 42.752386724393901 ], [ -78.547284990137101, 42.752207598581698 ], [ -78.547309797656794, 42.752167304290701 ], [ -78.547359558770495, 42.752028406070401 ], [ -78.547359634833597, 42.751892923056502 ], [ -78.547374568190094, 42.751823470362297 ], [ -78.547414303295795, 42.751721098141097 ], [ -78.547508757817596, 42.751556489395497 ], [ -78.547532194586495, 42.751469204611702 ], [ -78.547576109035305, 42.751380038406602 ], [ -78.547669453667794, 42.751327760662598 ], [ -78.547702513239699, 42.751300330629199 ], [ -78.547926021514201, 42.751099231521401 ], [ -78.547980612808004, 42.751058945381097 ], [ -78.548010406954702, 42.751044377830198 ], [ -78.548084881988402, 42.751026050211003 ], [ -78.548387808788704, 42.750912781669903 ], [ -78.548472225187695, 42.750799446019101 ], [ -78.548482249205506, 42.750766520858399 ], [ -78.548497156497106, 42.750740800931801 ], [ -78.548491477097102, 42.7507025550535 ], [ -78.548558844238798, 42.750702575528798 ], [ -78.548730462321302, 42.750700739699703 ], [ -78.549137578899007, 42.750693485387103 ], [ -78.550717621337796, 42.7507025120888 ], [ -78.551171390025402, 42.750705039569098 ], [ -78.551209185149403, 42.750705252731699 ], [ -78.550808313274999, 42.766774227743902 ], [ -78.550319362125506, 42.766660697925197 ], [ -78.550302671516505, 42.767331336712402 ], [ -78.550148834702796, 42.767291505173901 ] ], [ [ -78.550724420962794, 42.7637442399148 ], [ -78.550719597502393, 42.763393011068999 ], [ -78.550754584716898, 42.7630198429421 ], [ -78.550883979567701, 42.762361326724097 ], [ -78.550903910073899, 42.762302852661598 ], [ -78.550859481353399, 42.761797950218998 ], [ -78.550531973543599, 42.761420906660703 ], [ -78.550492182663405, 42.761402716668798 ], [ -78.550450996624505, 42.761386756161798 ], [ -78.549926268669694, 42.7611866407197 ], [ -78.549514219267195, 42.761149992440998 ], [ -78.549444751532505, 42.761138997052001 ], [ -78.549335482006001, 42.7611351926464 ], [ -78.548893582940707, 42.7612082925735 ], [ -78.548789308109605, 42.761219236913199 ], [ -78.548670112565603, 42.761277683312002 ], [ -78.548342342111596, 42.761405693452502 ], [ -78.547520702957698, 42.760892666081403 ], [ -78.547381185283299, 42.761080755839103 ], [ -78.547125796477303, 42.761408924299403 ], [ -78.547051274536997, 42.761485731859601 ], [ -78.546186910090498, 42.762209865852 ], [ -78.545928774601094, 42.762246483777403 ], [ -78.545839383356196, 42.762275609772701 ], [ -78.545948417702803, 42.762484186435898 ], [ -78.546404852182704, 42.763249039479398 ], [ -78.546424623283499, 42.763270997346801 ], [ -78.546583619696406, 42.763219769822399 ], [ -78.547556933949394, 42.762883594736401 ], [ -78.547929228494894, 42.7630665243409 ], [ -78.548748394837006, 42.763264335439302 ], [ -78.548872698448307, 42.7630193019234 ], [ -78.549185879655994, 42.762338891299201 ], [ -78.549693837381596, 42.7612596318097 ], [ -78.549812065393994, 42.761267040364601 ], [ -78.549966002162293, 42.761310988327999 ], [ -78.550448973917796, 42.761471132559798 ], [ -78.550452465097607, 42.761472162538901 ], [ -78.550601323318404, 42.761658793835899 ], [ -78.5507254168581, 42.761805115854102 ], [ -78.5507451479141, 42.761907677028802 ], [ -78.550779799157894, 42.762189286144 ], [ -78.550749916973203, 42.762364891419999 ], [ -78.5506553009605, 42.762825850366298 ], [ -78.550620485974406, 42.763089261956999 ], [ -78.550585477865994, 42.7635027320501 ], [ -78.5506052693908, 42.763711278681299 ], [ -78.550625026661706, 42.763762562989101 ], [ -78.550724420962794, 42.7637442399148 ] ], [ [ -78.5452297633705, 42.764113351815503 ], [ -78.545098062374805, 42.7640529422169 ], [ -78.5446147362087, 42.764650622963899 ], [ -78.544746437786202, 42.764711377004602 ], [ -78.5452297633705, 42.764113351815503 ] ] ] ] } },
{ "type": "Feature", "properties": { "id": null, "Name": null, "description": null, "timestamp": null, "begin": null, "end": null, "altitudeMode": "clampToGround", "tessellate": -1, "extrude": 0, "visibility": -1, "drawOrder": null, "icon": null, "OBJECTID": 5557.0, "SWIS": "146600", "PIN": "1466001770000001026121", "SBL": "177.00-1-26.121", "ADDNAME": "STRYKERSVILLE RD", "NARR1": null, "NARR2": null, "NARR3": null, "FRONT": 0.0, "DEPTH": 0.0, "ASSESSACRE": 222.64, "CALCACRES": 223.19206857, "CLASS": 322, "PROP_TYPE": "R", "PROP_DESC": "Rural vac>10", "OWNER1": "WESTERN NEW YORK LAND", "OWNER2": "CONSERVANCY  INC.", "MAILAD1": null, "MAILAD2": null, "STREET": "PO BOX 471", "CITY": "EAST AURORA  NY", "ZIP": "14052", "ZIP4": null, "SCHOOL": 144201.0, "SCHL_DIST": "IROQUOIS CENTRAL SCHOOL DISTRICT #1", "DEEDATE": null, "ROLL": 8, "BOOK": "11363", "PAGE": "5574", "ACTIVE": "A", "TOTAV": 87400.0, "LANDAV": 87400.0, "COTAX": 0.0, "TOWNTAX": 0.0, "SCHLTAX": 0.0, "VILLTAX": 0.0, "YEARBLT": 0, "SFLA": 0.0, "CONDITION": 0, "HEAT": 0, "BASEMENT": 0, "FIREPLACE": 0, "BEDS": 0, "BATHS": 0.0, "ADDNUM": 0.0, "CITYTOWN": "Wales", "ADDNUM_STR": null, "ADDRESS": "0 STRYKERSVILLE RD", "LOCALZIP": "14169", "GlobalID": "{FBC03E36-40A7-4B4B-91BD-3AC0075EAB97}", "Shape_STAr": 9722207.6179200001, "Shape_STLe": 15409.6615115 }, "geometry": { "type": "MultiPolygon", "coordinates": [ [ [ [ -78.540924447029099, 42.764082294941403 ], [ -78.541258339288802, 42.763576678623998 ], [ -78.541043365371905, 42.7626093032694 ], [ -78.540390141988595, 42.7623846361871 ], [ -78.540085836246007, 42.762692540271701 ], [ -78.539189776762498, 42.762032912580104 ], [ -78.539184961159705, 42.762119788559502 ], [ -78.539211972515702, 42.760586776096197 ], [ -78.539232256715906, 42.759869580832202 ], [ -78.539247902066606, 42.7587939522165 ], [ -78.539258518185505, 42.758422663945701 ], [ -78.539278442601102, 42.757718330027203 ], [ -78.539294087802503, 42.756642700999102 ], [ -78.539314485665102, 42.7559256763139 ], [ -78.539330128544904, 42.754850046941797 ], [ -78.539340518097703, 42.754133018180198 ], [ -78.539365920836801, 42.753412221273102 ], [ -78.539376220387993, 42.752823130366899 ], [ -78.539386602506298, 42.752117077110697 ], [ -78.5394019943503, 42.751400049919297 ], [ -78.539412501179299, 42.750679246940997 ], [ -78.544123548920595, 42.750688305433002 ], [ -78.547042562499499, 42.7506928523811 ], [ -78.548015603225707, 42.750696753059003 ], [ -78.548398746036, 42.750700640793902 ], [ -78.548491477097102, 42.7507025550535 ], [ -78.548497156497106, 42.750740800931801 ], [ -78.548482249205506, 42.750766520858399 ], [ -78.548472225187695, 42.750799446019101 ], [ -78.548387808788704, 42.750912781669903 ], [ -78.548084881988402, 42.751026050211003 ], [ -78.548010406954702, 42.751044377830198 ], [ -78.547980612808004, 42.751058945381097 ], [ -78.547926021514201, 42.751099231521401 ], [ -78.547702513239699, 42.751300330629199 ], [ -78.547669453667794, 42.751327760662598 ], [ -78.547576109035305, 42.751380038406602 ], [ -78.547532194586495, 42.751469204611702 ], [ -78.547508757817596, 42.751556489395497 ], [ -78.547414303295795, 42.751721098141097 ], [ -78.547374568190094, 42.751823470362297 ], [ -78.547359634833597, 42.751892923056502 ], [ -78.547359558770495, 42.752028406070401 ], [ -78.547309797656794, 42.752167304290701 ], [ -78.547284990137101, 42.752207598581698 ], [ -78.546996912150107, 42.752386724393901 ], [ -78.546912145048694, 42.752491998033598 ], [ -78.546884659505494, 42.752536407296297 ], [ -78.546788282974703, 42.752598973202801 ], [ -78.546768485034903, 42.752628122164197 ], [ -78.546758464053397, 42.752653843417498 ], [ -78.546773339192399, 42.752686775467403 ], [ -78.546880293579903, 42.752844416059602 ], [ -78.546901918497099, 42.752876493208397 ], [ -78.546947026320893, 42.7529428770859 ], [ -78.547135602821996, 42.753005189569897 ], [ -78.547413492743601, 42.753151562998902 ], [ -78.547492923346894, 42.753221044352898 ], [ -78.547626862756601, 42.753404073233298 ], [ -78.547755714669606, 42.753736990860602 ], [ -78.547749774387697, 42.753955991166301 ], [ -78.547859728980001, 42.754168854455102 ], [ -78.547874601785395, 42.754205387325101 ], [ -78.547943991438402, 42.7545492620308 ], [ -78.547958863455605, 42.754589567805802 ], [ -78.547988626000503, 42.754633480948002 ], [ -78.548058056246106, 42.7546993569336 ], [ -78.548107720601394, 42.754735901382098 ], [ -78.548618848216094, 42.755014224447798 ], [ -78.548698286658905, 42.755076330156498 ], [ -78.548787577029202, 42.755211839190203 ], [ -78.5487924671542, 42.755420382838899 ], [ -78.548707864886893, 42.755650850977403 ], [ -78.548514078749406, 42.755947141361297 ], [ -78.548340150398303, 42.756309292930403 ], [ -78.548156170402393, 42.756751873308602 ], [ -78.548131322608995, 42.756865226032403 ], [ -78.548126257707693, 42.756974982961601 ], [ -78.548185582181205, 42.757432386555003 ], [ -78.548205446533302, 42.757494645325202 ], [ -78.548235206568094, 42.7575457612215 ], [ -78.548269989081106, 42.757564121521497 ], [ -78.548408740729499, 42.757904415092597 ], [ -78.548438519543794, 42.757922774714302 ], [ -78.548537868232401, 42.757970308942397 ], [ -78.548597435494898, 42.757992277640199 ], [ -78.548830737170306, 42.758010697815799 ], [ -78.548910214084003, 42.758010720834903 ], [ -78.548999593775207, 42.757988796155402 ], [ -78.549103853891694, 42.757992427438197 ], [ -78.549148534811906, 42.757999815572099 ], [ -78.5491783179489, 42.758010800215999 ], [ -78.549371958899897, 42.7579925063663 ], [ -78.549769088714598, 42.758036524684499 ], [ -78.549818760629705, 42.758065864632499 ], [ -78.549833599245304, 42.758171854522502 ], [ -78.549724236209798, 42.7583548111607 ], [ -78.549651585954607, 42.758426134027999 ], [ -78.549634820487697, 42.758442592728997 ], [ -78.549284629561498, 42.758746556813499 ], [ -78.549207808330095, 42.758783063080401 ], [ -78.548899653274106, 42.7590314728305 ], [ -78.5486960610084, 42.759152147427201 ], [ -78.5486016439812, 42.759232551877801 ], [ -78.548129717405502, 42.7597556501726 ], [ -78.547866417283601, 42.7600994236292 ], [ -78.547612982075094, 42.760483500675001 ], [ -78.547493739433193, 42.760626149986003 ], [ -78.547329758683603, 42.760860193888199 ], [ -78.547200452955593, 42.761094420439001 ], [ -78.547036482704399, 42.761306512404403 ], [ -78.546728518974405, 42.761588186497399 ], [ -78.546549680394904, 42.761745393346402 ], [ -78.546519873250702, 42.761774710047099 ], [ -78.546495074514098, 42.761792880656103 ], [ -78.546445369694197, 42.761818589966502 ], [ -78.546365870550304, 42.7618477195617 ], [ -78.546182203381093, 42.761902540663101 ], [ -78.546038122884795, 42.761920845255702 ], [ -78.545685638715, 42.761909755056898 ], [ -78.545596263377405, 42.761913327504203 ], [ -78.5455068924187, 42.761909697948198 ], [ -78.545303397252894, 42.761843776049702 ], [ -78.545149459150494, 42.761807196604899 ], [ -78.544881364906104, 42.761763204794001 ], [ -78.544712509041403, 42.761763149766502 ], [ -78.544593340631295, 42.761770312346201 ], [ -78.544528863611006, 42.761781267163101 ], [ -78.544288428740501, 42.761774509236503 ], [ -78.544095172193096, 42.761749320125098 ], [ -78.543882981128903, 42.761718537264599 ], [ -78.543813036556699, 42.761727860356899 ], [ -78.543601456304899, 42.762048701755198 ], [ -78.541834199982503, 42.761724013944203 ], [ -78.541427513398901, 42.7625370929726 ], [ -78.541476679273202, 42.762758335458301 ], [ -78.541669970912395, 42.763628106000503 ], [ -78.541287574566397, 42.764207176222499 ], [ -78.540924447029099, 42.764082294941403 ] ] ] ] } }
]
}
